NORAD_CAT_ID,OBJECT_NAME,OBJECT_TYPE,EPOCH,MEAN_MOTION,ECCENTRICITY,INCLINATION,RA_OF_ASC_NODE,ARG_OF_PERICENTER,MEAN_ANOMALY,BSTAR,MEAN_MOTION_DOT,MEAN_MOTION_DDOT,TLE_LINE0,TLE_LINE1,TLE_LINE2,SEMIMAJOR_AXIS,PERIOD,APOGEE,PERIGEE,DECAYED
51968.0,STARLINK-3681,PAYLOAD,2023-03-20 16:47:40,15.08048374,0.0001267,53.1925,219.9206,89.1545,270.9592,-0.00044424,-7.198e-05,0.0,0 STARLINK-3681,1 51968U 22025N   23079.69977657 -.00007198  00000-0 -44424-3 0  9995,2 51968  53.1925 219.9206 0001267  89.1545 270.9592 15.08048374 57403,6920.301,95.488,543.043,541.289,0.0
51968.0,STARLINK-3681,PAYLOAD,2023-03-21 02:20:17,15.08055653,8.29e-05,53.1913,218.1363,90.5784,269.5302,-0.00018669,-3.193e-05,0.0,0 STARLINK-3681,1 51968U 22025N   23080.09741950 -.00003193  00000-0 -18669-3 0  9999,2 51968  53.1913 218.1363 0000829  90.5784 269.5302 15.08055653 58568,6920.279,95.487,542.718,541.57,0.0
51968.0,STARLINK-3681,PAYLOAD,2023-03-21 08:42:02,15.08048064,0.0001189,53.191,216.9473,79.4251,280.6874,0.00027259,3.962e-05,0.0,0 STARLINK-3681,1 51968U 22025N   23080.36252573  .00003962  00000-0  27259-3 0  9994,2 51968  53.1910 216.9473 0001189  79.4251 280.6874 15.08048064 57507,6920.302,95.488,542.99,541.344,0.0
51968.0,STARLINK-3681,PAYLOAD,2023-03-21 13:28:20,15.08057916,0.0001114,53.1908,216.0557,92.1924,267.9196,0.00048756,7.318e-05,0.0,0 STARLINK-3681,1 51968U 22025N   23080.56134609  .00007318  00000-0  48756-3 0  9999,2 51968  53.1908 216.0557 0001114  92.1924 267.9196 15.08057916 57539,6920.272,95.487,542.908,541.366,0.0
51968.0,STARLINK-3681,PAYLOAD,2023-03-22 11:44:26,15.08042015,0.0001019,53.1889,211.8926,90.9884,269.1225,4.8564e-05,4.71e-06,0.0,0 STARLINK-3681,1 51968U 22025N   23081.48919730  .00000471  00000-0  48564-4 0  9998,2 51968  53.1889 211.8926 0001019  90.9884 269.1225 15.08042015 58773,6920.321,95.488,542.891,541.48,0.0
51968.0,STARLINK-3681,PAYLOAD,2023-03-22 14:55:18,15.08058569,0.0001084,53.188,211.2996,56.6107,303.4988,0.00028224,4.114e-05,0.0,0 STARLINK-3681,1 51968U 22025N   23081.62174154  .00004114  00000-0  28224-3 0  9995,2 51968  53.1880 211.2996 0001084  56.6107 303.4988 15.08058569 58795,6920.27,95.487,542.885,541.385,0.0
51968.0,STARLINK-3681,PAYLOAD,2023-03-23 02:03:21,15.08050544,0.0001248,53.1895,209.2164,67.5408,292.5716,8.9117e-05,1.103e-05,0.0,0 STARLINK-3681,1 51968U 22025N   23082.08566740  .00001103  00000-0  89117-4 0  9996,2 51968  53.1895 209.2164 0001248  67.5408 292.5716 15.08050544 58862,6920.294,95.488,543.023,541.296,0.0
51968.0,STARLINK-3681,PAYLOAD,2023-03-23 13:11:25,15.08042815,0.0001245,53.1864,207.1366,54.6823,305.4285,2.2345e-05,6.2e-07,0.0,0 STARLINK-3681,1 51968U 22025N   23082.54959734  .00000062  00000-0  22345-4 0  9999,2 51968  53.1864 207.1366 0001245  54.6823 305.4285 15.08042815 58939,6920.318,95.488,543.045,541.322,0.0
51968.0,STARLINK-3681,PAYLOAD,2023-03-23 14:46:50,15.08047625,9.96e-05,53.1858,206.8364,77.1795,282.9308,9.9997e-05,1.272e-05,0.0,0 STARLINK-3681,1 51968U 22025N   23082.61586746  .00001272  00000-0  99997-4 0  9997,2 51968  53.1858 206.8364 0000996  77.1795 282.9308 15.08047625 57844,6920.303,95.488,542.858,541.479,0.0
51968.0,STARLINK-3681,PAYLOAD,2023-03-24 11:27:29,15.08084186,0.0001038,53.1869,202.9737,63.9245,296.1853,0.00081232,0.00012401,0.0,0 STARLINK-3681,1 51968U 22025N   23083.47741900  .00012401  00000-0  81232-3 0  9995,2 51968  53.1869 202.9737 0001038  63.9245 296.1853 15.08084186 59070,6920.192,95.485,542.775,541.338,0.0
51968.0,STARLINK-3681,PAYLOAD,2023-03-24 13:02:54,15.08116828,0.000131,53.1859,202.6752,89.7953,270.3188,0.0019156,0.00029732,0.0,0 STARLINK-3681,1 51968U 22025N   23083.54369146  .00029732  00000-0  19156-2 0  9991,2 51968  53.1859 202.6752 0001310  89.7953 270.3188 15.08116828 57980,6920.092,95.483,542.863,541.05,0.0
51968.0,STARLINK-3681,PAYLOAD,2023-03-24 14:38:20,15.08125017,0.0001368,53.1871,202.3804,79.8449,280.2697,0.0019657,0.00030527,0.0,0 STARLINK-3681,1 51968U 22025N   23083.60996228  .00030527  00000-0  19657-2 0  9995,2 51968  53.1871 202.3804 0001368  79.8449 280.2697 15.08125017 59091,6920.067,95.483,542.878,540.985,0.0
51968.0,STARLINK-3681,PAYLOAD,2023-03-24 17:49:12,15.0814095,0.0001436,53.1878,201.7846,80.9222,279.1931,0.0022239,0.0003461,0.0,0 STARLINK-3681,1 51968U 22025N   23083.74250143  .00034610  00000-0  22239-2 0  9996,2 51968  53.1878 201.7846 0001436  80.9222 279.1931 15.08140950 58017,6920.018,95.482,542.877,540.889,0.0
51968.0,STARLINK-3681,PAYLOAD,2023-03-25 12:54:31,15.07900416,9.37e-05,53.1852,198.2133,106.4347,253.6748,-0.00050024,-8.036e-05,0.0,0 STARLINK-3681,1 51968U 22025N   23084.53786150 -.00008036  00000-0 -50024-3 0  9995,2 51968  53.1852 198.2133 0000937 106.4347 253.6748 15.07900416 59233,6920.754,95.497,543.267,541.97,0.0
51968.0,STARLINK-3681,PAYLOAD,2023-03-25 14:29:58,15.07900513,0.0001258,53.1854,197.916,89.4609,270.6526,-3.7745e-05,-8.71e-06,0.0,0 STARLINK-3681,1 51968U 22025N   23084.60414405 -.00000871  00000-0 -37745-4 0  9999,2 51968  53.1854 197.9160 0001258  89.4609 270.6526 15.07900513 58149,6920.754,95.497,543.489,541.748,0.0
51968.0,STARLINK-3681,PAYLOAD,2023-03-26 12:46:05,15.08102483,0.000165,53.1862,193.7581,59.1499,300.9654,0.0045348,0.00071163,0.0,0 STARLINK-3681,1 51968U 22025N   23085.53200368  .00071163  00000-0  45348-2 0  9999,2 51968  53.1862 193.7581 0001650  59.1499 300.9654 15.08102483 59383,6920.136,95.484,543.142,540.859,0.0
51968.0,STARLINK-3681,PAYLOAD,2023-03-26 17:32:22,15.08127074,0.0001678,53.1861,192.866,56.8825,303.2327,0.0045831,0.00071981,0.0,0 STARLINK-3681,1 51968U 22025N   23085.73081966  .00071981  00000-0  45831-2 0  9997,2 51968  53.1861 192.8660 0001678  56.8825 303.2327 15.08127074 58315,6920.06,95.483,543.087,540.764,0.0
51968.0,STARLINK-3681,PAYLOAD,2023-03-26 23:54:07,15.08061845,0.0001269,53.1856,191.6762,86.1432,273.9704,0.0026002,0.0004046,0.0,0 STARLINK-3681,1 51968U 22025N   23085.99591513  .00040460  00000-0  26002-2 0  9996,2 51968  53.1856 191.6762 0001269  86.1432 273.9704 15.08061845 59456,6920.26,95.487,543.003,541.247,0.0
51968.0,STARLINK-3681,PAYLOAD,2023-03-27 12:37:35,15.08085605,0.0001257,53.1843,189.2951,79.1455,280.9678,0.0035983,0.00056263,0.0,0 STARLINK-3681,1 51968U 22025N   23086.52610805  .00056263  00000-0  35983-2 0  9998,2 51968  53.1843 189.2951 0001257  79.1455 280.9678 15.08085605 59536,6920.187,95.485,542.922,541.182,0.0
51968.0,STARLINK-3681,PAYLOAD,2023-03-27 14:13:01,15.0808402,0.0001171,53.184,188.9971,77.6215,282.4907,0.0029817,0.00046506,0.0,0 STARLINK-3681,1 51968U 22025N   23086.59238143  .00046506  00000-0  29817-2 0  9994,2 51968  53.1840 188.9971 0001171  77.6215 282.4907 15.08084020 58444,6920.192,95.485,542.867,541.247,0.0
51968.0,STARLINK-3681,PAYLOAD,2023-03-27 15:48:27,15.08088324,0.0001213,53.1838,188.6992,74.6109,285.5017,0.0028172,0.00043914,0.0,0 STARLINK-3681,1 51968U 22025N   23086.65865465  .00043914  00000-0  28172-2 0  9997,2 51968  53.1838 188.6992 0001213  74.6109 285.5017 15.08088324 59557,6920.179,95.485,542.883,541.204,0.0
51968.0,STARLINK-3681,PAYLOAD,2023-03-28 12:29:07,15.08072515,0.0001214,53.1824,184.8324,90.9378,269.1752,0.0019513,0.00030257,0.0,0 STARLINK-3681,1 51968U 22025N   23087.52022492  .00030257  00000-0  19513-2 0  9994,2 51968  53.1824 184.8324 0001214  90.9378 269.1752 15.08072515 59682,6920.227,95.486,542.932,541.252,0.0
51968.0,STARLINK-3681,PAYLOAD,2023-03-28 14:04:33,15.0807296,0.0001214,53.1822,184.535,90.2182,269.8948,0.0018771,0.00029091,0.0,0 STARLINK-3681,1 51968U 22025N   23087.58649891  .00029091  00000-0  18771-2 0  9997,2 51968  53.1822 184.5350 0001214  90.2182 269.8948 15.08072960 58599,6920.226,95.486,542.931,541.251,0.0
51968.0,STARLINK-3681,PAYLOAD,2023-03-29 05:58:54,15.08070541,0.0001383,53.1822,181.5628,119.0975,241.0155,0.0016762,0.00025933,0.0,0 STARLINK-3681,1 51968U 22025N   23088.24924586  .00025933  00000-0  16762-2 0  9997,2 51968  53.1822 181.5628 0001383 119.0975 241.0155 15.08070541 59799,6920.233,95.486,543.055,541.141,0.0
51968.0,STARLINK-3681,PAYLOAD,2023-03-29 12:20:39,15.08072171,0.0001606,53.1819,180.3709,122.012,238.1028,0.0019303,0.00029926,0.0,0 STARLINK-3681,1 51968U 22025N   23088.51434335  .00029926  00000-0  19303-2 0  9995,2 51968  53.1819 180.3709 0001606 122.0120 238.1028 15.08072171 58736,6920.228,95.486,543.205,540.982,0.0
51968.0,STARLINK-3681,PAYLOAD,2023-03-30 05:50:27,15.08040276,0.0001437,53.1813,177.1009,85.8307,274.2849,0.00085116,0.00012993,0.0,0 STARLINK-3681,1 51968U 22025N   23089.24337280  .00012993  00000-0  85116-3 0  9999,2 51968  53.1813 177.1009 0001437  85.8307 274.2849 15.08040276 59949,6920.326,95.488,543.185,541.196,0.0
51968.0,STARLINK-3681,PAYLOAD,2023-03-30 16:58:30,15.08068166,0.0001333,53.1802,175.0181,88.128,271.9864,0.0023931,0.00037204,0.0,0 STARLINK-3681,1 51968U 22025N   23089.70729377  .00037204  00000-0  23931-2 0  9990,2 51968  53.1802 175.0181 0001333  88.1280 271.9864 15.08068166 60015,6920.241,95.486,543.028,541.183,0.0
51968.0,STARLINK-3681,PAYLOAD,2023-03-31 05:41:59,15.08050371,6.78e-05,53.1805,172.6423,69.9863,290.1202,0.00096419,0.00014764,0.0,0 STARLINK-3681,1 51968U 22025N   23090.23749523  .00014764  00000-0  96419-3 0  9993,2 51968  53.1805 172.6423 0000678  69.9863 290.1202 15.08050371 60091,6920.295,95.488,542.629,541.691,0.0
51968.0,STARLINK-3681,PAYLOAD,2023-03-31 15:14:36,15.08081696,0.0001095,53.1791,170.8561,90.7687,269.343,0.0028854,0.00044982,0.0,0 STARLINK-3681,1 51968U 22025N   23090.63514050  .00044982  00000-0  28854-2 0  9994,2 51968  53.1791 170.8561 0001095  90.7687 269.3430 15.08081696 60150,6920.199,95.486,542.822,541.306,0.0
51968.0,STARLINK-3681,PAYLOAD,2023-04-01 03:58:06,15.08043812,0.000125,53.1794,168.4761,114.0614,246.0508,0.0016824,0.00026011,0.0,0 STARLINK-3681,1 51968U 22025N   23091.16534764  .00026011  00000-0  16824-2 0  9994,2 51968  53.1794 168.4761 0001250 114.0614 246.0508 15.08043812 60236,6920.315,95.488,543.045,541.315,0.0
